LUOJIA-1 01
1 43485U 18048B   26041.19883284  .00002871  00000-0  32857-3 0  9997
2 43485  97.8200 121.4323 0009286 171.4778 188.6597 14.86726882415341
DIWATA-2B (PO-101)
1 43678U 18084H   26041.16979331  .00001749  00000-0  14650-3 0  9991
2 43678  98.1063 232.0756 0008916 212.3742 147.6934 14.99822209397174
ESHAIL-2
1 43700U 18090A   26041.10878058  .00000153  00000-0  00000+0 0  9990
2 43700   0.0169 107.2651 0002433 259.3267 198.5024  1.00272864 26401
K2SAT
1 43761U 18099D   26041.07369585  .00003547  00000-0  24761-3 0  9996
2 43761  97.4370  86.4973 0012799  63.5440 296.7099 15.05913742392979
AISTECHSAT-2
1 43768U 18099L   26041.12267809  .00006298  00000-0  35070-3 0  9996
2 43768  97.4497  91.9448 0005571  36.4197 323.7413 15.13958110393049
SNUSAT-2
1 43782U 18099AA  26041.08119789  .00009258  00000-0  43696-3 0  9992
2 43782  97.4261  96.4949 0011302  28.3867 331.7982 15.19614587393710
ITASAT-1
1 43786U 18099AE  26041.07854989  .00008137  00000-0  41152-3 0  9993
2 43786  97.4231  95.1679 0014540  78.0251 282.2612 15.17205998393623
IRVINE02
1 43789U 18099AH  26041.15103482  .01122435  67536-3  19046-2 0  9995
2 43789  97.4206 123.6552 0008511 293.6108  66.4277 16.02733254395135
EAGLET-1
1 43790U 18099AJ  26041.08916830  .00005229  00000-0  30920-3 0  9993
2 43790  97.4436  94.0993 0012729  68.4259 291.8326 15.11823125393125
ESEO
1 43792U 18099AL  26041.10861153  .00001990  00000-0  14881-3 0  9994
2 43792  97.4173  83.8563 0013653  53.6306 306.6178 15.03799880392704
HIBER-2
1 43774U 18099S   26028.96940761  .08639631  25068-5  13938-2 0  9990
2 43774  97.4270 113.4809 0009314 286.8843  73.1432 16.33569322393452
MINXSS-2
1 43758U 18099A   26041.15429245  .00029741  00000-0  78323-3 0  9998
2 43758  97.4685 114.4551 0008515  10.1687 349.9728 15.38454476394545
FOX-1CLIFF (AO-95)
1 43770U 18099N   26041.13240211  .00012198  00000-0  51068-3 0  9999
2 43770  97.4576 102.0148 0010546  78.1419 282.1000 15.23652000393858
CORVUS-BC4
1 43767U 18099K   26041.11859804  .00005246  00000-0  31478-3 0  9996
2 43767  97.4268  87.7977 0010171  82.1912 278.0473 15.11307686393209
CZ-4B R/B
1 43656U 18081B   26041.14443115  .00000265  00000-0  96831-4 0  9992
2 43656  99.3736 308.9292 0203920 272.7548  85.0310 14.31809490381128
COSMOS 2504 [i]
1 40555U 15020D   26041.18400307  .00000544  00000-0  20014-3 0  9996
2 40555  82.5225 329.4623 0606804 259.5477  93.6784 13.61318079532913
MERIDIAN-4
1 37398U 11018A   26038.64116571  .00005762  00000-0  34315-2 0  9999
2 37398  62.0825  95.1153 7493092 263.9955  14.9529  2.01061961108164
MERIDIAN-6
1 38995U 12063A   26040.48596223  .00000206  00000-0  00000-0 0  9995
2 38995  64.3145  13.4480 7318879 229.2516  40.0185  2.00521229 96948
MERIDIAN-7
1 40296U 14069A   26040.56009792  .00000140  00000-0  00000+0 0  9995
2 40296  63.4628 228.0329 6699262 271.3711  18.8826  2.00586549 82675
METOP-C
1 43689U 18087A   26041.15885941  .00000118  00000-0  73984-4 0  9993
2 43689  98.6828 102.9900 0001764 138.5839 221.5472 14.21511177376783
FENGYUN-3B
1 37214U 10059A   26041.15604767 -.00000240  00000-0 -10076-3 0  9996
2 37214  98.9822  86.5264 0021960 184.2775 266.0592 14.14808903789462
FENGYUN-3C
1 39260U 13052A   26041.18324145  .00000142  00000-0  93551-4 0  9996
2 39260  98.4846  20.9849 0015329  32.8275 327.3849 14.15719338640592
EWS-G1 (GOES-13)
1 29155U 06018A   26040.90827552 -.00000134  00000-0  00000+0 0  9995
2 29155   4.2019  77.9979 0061780 271.9314 126.1313  0.98789099 41996
FENGYUN-2H
1 43491U 18050A   26041.13603671 -.00000119  00000-0  00000+0 0  9996
2 43491   2.7031  80.6536 0001865 170.1203  17.3178  1.00275039 28169
FENGYUN-2G
1 40367U 14090A   26041.06869637 -.00000293  00000-0  00000+0 0  9996
2 40367   5.3169  74.3745 0001285 200.7043 349.0354  1.00262081 40729
INMARSAT 4-F1
1 28628U 05009A   26040.28100324  .00000039  00000-0  00000+0 0  9993
2 28628   4.9950  42.7316 0002319 304.9670  70.9286  1.00272377 76398
INMARSAT 4-F2
1 28899U 05044A   26040.93488234 -.00000254  00000-0  00000+0 0  9993
2 28899   4.9258  43.7981 0002199 300.7716 275.4933  1.00272901 74245
INMARSAT 4-F3
1 33278U 08039A   26041.10093650 -.00000133  00000-0  00000+0 0  9997
2 33278   4.1843  31.0936 0002750 294.8013 112.6187  1.00271032 45278
INMARSAT 4A-F4 (ALPHASAT)
1 39215U 13038A   26041.05183727  .00000143  00000-0  00000+0 0  9998
2 39215   2.9763   2.3496 0002054 328.6688 212.6508  1.00276575 42749
ASTROCAST
1 43798U 18099AS  26041.15400337  .00030178  00000-0  72842-3 0  9999
2 43798  97.4513 116.4294 0004954 324.5324  35.5592 15.41137999394817
JY1SAT (JO-97)
1 43803U 18099AX  26041.14757801  .00016972  00000-0  59994-3 0  9995
2 43803  97.4318 103.8378 0006124  14.5816 345.5599 15.29236889394188
SUOMI-100
1 43804U 18099AY  26041.13445181  .00012275  00000-0  49088-3 0  9995
2 43804  97.4383 102.1770 0010737  16.5718 343.5869 15.25191310394034
GEO-KOMPSAT-2A
1 43823U 18100A   26040.50395388 -.00000336  00000-0  00000-0 0  9996
2 43823   0.0175  92.9434 0001100 315.1419  41.1655  1.00272885 26342
UWE-4
1 43880U 18111E   26040.71627628  .00029856  00000-0  79497-3 0  9995
2 43880  97.5853 324.0335 0011759  68.5970 291.6528 15.38080898391130
D-STAR ONE SPARROW
1 43881U 18111F   26041.15780559  .00065214  00000-0  11205-2 0  9998
2 43881  97.6101 332.6439 0008120  86.4844 273.7335 15.50885963391558
METEOR M2-2
1 44387U 19038A   26041.16758610  .00000184  00000-0  99314-4 0  9997
2 44387  98.9052  26.6485 0002077  49.4317 310.7042 14.24322313343211
MOMENTUS-X1
1 44408U 19038Y   26041.04630009  .00032519  00000-0  45185-3 0  9992
2 44408  97.6972  75.6631 0011339 117.9278 242.3125 15.56874079366716
MERIDIAN-8
1 44453U 19046A   26039.61392253 -.00000139  00000-0  00000-0 0  9995
2 44453  63.0118  67.2105 7033326 274.4908  15.1291  2.00626560 47760
TAURUS-1
1 44530U 19059C   26041.20532775  .00007051  00000-0  11746-2 0  9998
2 44530  98.6265 198.4035 0008257 349.2731  10.8295 14.70331835339976
GAOFEN 12-01
1 44819U 19082A   26041.21224661  .00000579  00000-0  82651-4 0  9990
2 44819  97.8138  50.9361 0002430  90.1869 269.9622 14.80330259335305
CAS-6 (TO-108)
1 44881U 19093C   26041.15089235  .00001092  00000-0  13002-3 0  9994
2 44881  97.7659 116.4338 0014435 140.5991 219.6277 14.86275111332549
ELEKTRO-L3
1 44903U 19095A   26041.16830711 -.00000088  00000-0  00000+0 0  9990
2 44903   0.0753 280.3002 0001411  39.5757 316.9985  1.00271356 22432
DOSAAF-85 (RS-44)
1 44909U 19096E   26041.04097505  .00000024  00000-0  42510-4 0  9996
2 44909  82.5172  64.1959 0218660  81.7231 280.8600 12.79746979286081
MERIDIAN-9
1 45254U 20015A   26039.85451116 -.00000136  00000-0  00000+0 0  9999
2 45254  65.4800 332.7016 6898067 280.0445  14.4937  2.00611640 43717
ION-MK01
1 46274U 20061C   26041.17130620  .00115625  00000-0  64444-3 0  9990
2 46274  97.2044 118.7117 0000467  61.1130 299.0184 15.79104515303294
DEKART
1 46493U 20068H   26041.15387185  .00015086  00000-0  46019-3 0  9996
2 46493  97.8766  41.6337 0010520  27.9774 332.2031 15.33992207296270
NORBY
1 46494U 20068J   26041.13617522  .00025323  00000-0  58601-3 0  9991
2 46494  97.8697  46.4371 0007573  18.8202 341.3322 15.42433993296584
SALSAT (TUBSAT 22)
1 46495U 20068K   26040.96997446  .00009570  00000-0  35696-3 0  9993
2 46495  97.8839  36.5102 0011346  37.9374 322.2661 15.27594872295928
NETSAT-4
1 46504U 20068U   26040.97131719  .00019220  00000-0  49566-3 0  9992
2 46504  97.8632  39.4285 0008214  65.3841 294.8258 15.39198998296174
NETSAT-3
1 46505U 20068V   26041.13256920  .00020771  00000-0  55959-3 0  9990
2 46505  97.8665  38.0075 0008210  77.9067 282.3096 15.37835671296129
NETSAT-1
1 46506U 20068W   26040.52519237  .00015965  00000-0  53359-3 0  9997
2 46506  97.8726  33.0820 0007993  93.1614 267.0540 15.31073200295743
NETSAT-2
1 46507U 20068X   26040.94383248  .00023774  00000-0  59361-3 0  9991
2 46507  97.8648  38.9502 0007140  88.5866 271.6196 15.40150398296113
ARKTIKA-M1
1 47719U 21016A   26035.90384421 -.00000136  00000-0  00000-0 0  9996
2 47719  63.1930  76.4940 7230705 269.3476  15.2984  2.00623094 36131
SIMBA
1 47941U 21022K   26040.79499797  .00303886  35145-4  11259-2 0  9995
2 47941  97.3963 320.3905 0009080 112.0244 248.1993 15.88032976271383
UNISAT-7
1 47945U 21022P   26040.69383606  .00015553  00000-0  43549-3 0  9996
2 47945  97.4001 304.5575 0010225 160.2689 199.8953 15.36669653270253
CSS (TIANHE-1)
1 48274U 21035A   26041.12406565  .00019954  00000-0  24874-3 0  9994
2 48274  41.4685  15.7321 0004589  45.3752 314.7460 15.59414505273305
FENGYUN-4B
1 48808U 21047A   26041.06964970 -.00000321  00000-0  00000+0 0  9992
2 48808   0.1346  73.9997 0009233 300.3390 255.5337  1.00271378 17291
CUTE-LASP
1 49263U 21088D   26041.19225936  .00037612  00000-0  39442-3 0  9997
2 49263  97.4258 131.9094 0004326  59.1198 301.0486 15.64292467242574
JILIN-01 GAOFEN 2F
1 49338U 21097A   26041.16837480  .00005681  00000-0  38614-3 0  9991
2 49338  97.6499 167.9338 0018261 301.2628  58.6810 15.06622173237182
TEIKYOSAT-4 (OORURI)
1 49396U 21102B   26041.09082058  .00002477  00000-0  16040-3 0  9996
2 49396  97.3843  75.4530 0012594  18.5652 341.6034 15.08981637233556
Z-SAT
1 49399U 21102E   26041.15160206  .00005553  00000-0  28233-3 0  9993
2 49399  97.3512  80.3112 0016248 336.2183  23.8298 15.17136727234174
KOSEN-1
1 49402U 21102H   26041.05160339  .00008945  00000-0  36246-3 0  9995
2 49402  97.3389  85.7278 0012758 300.0715  59.9257 15.24811680234637
CAMSAT XW-3 (CAS-9)
1 50466U 21131B   26041.21989336  .00000701  00000-0  23076-3 0  9992
2 50466  98.4984 134.3299 0005182 115.1813 244.9914 14.41214072216820
INSPIRESAT-1
1 51657U 22013B   26041.07986822  .00095547  00000-0  74442-3 0  9991
2 51657  97.4550  86.5524 0005306 140.7481 219.4167 15.71405838222531
GOES-18
1 51850U 22021A   26041.09322314  .00000105  00000-0  00000+0 0  9998
2 51850   0.0154  92.0540 0000701 293.5168  11.1429  1.00271275  5315
